[
    
    {
      "name": "Postnord K-supermarket Joutsensilta",
      "address": "Paljetie 4",
      "zipcode": "90150",
      "city": "OULU",
      "totalCabinets": 20
    },
    {
      "name": "Postnord Automaatti S-market Tuira",
      "address": "Valtatie 28",
      "zipcode": "90500",
      "city": "OULU",
      "totalCabinets": 20
    },
    {
      "name": "Postnord Lähiboksi Sale Höyhtyä",
      "address": "Latokartanontie 1",
      "zipcode": "90150",
      "city": "OULU",
      "totalCabinets": 20
    },
    {
      "name": "Postnord Automaatti Prisma Limingantulli Oulu",
      "address": "Nuottasaarentie 1",
      "zipcode": "90130",
      "city": "OULU",
      "totalCabinets": 20
    },
    {
      "name": "Postnord Automaatti Kärkkäinen Oulu",
      "address": "Alasintie 12",
      "zipcode": "90400",
      "city": "OULU",
      "totalCabinets": 20
    },
    {
      "name": "Postnord Lähiboksi Prisma Limingantulli",
      "address": "Nuottasaarentie 1",
      "zipcode": "90400",
      "city": "OULU",
      "totalCabinets": 20
    },
    {
      "name": "Postnord Automaatti K-market Värttö",
      "address": "Kurkelantie 2B",
      "zipcode": "90230",
      "city": "OULU",
      "totalCabinets": 20
    },
    {
      "name": "Postnord K-market Värttö",
      "address": "Kurkelantie 2",
      "zipcode": "90230",
      "city": "OULU",
      "totalCabinets": 20
    },
    {
      "name": "Postnord Lähiboksi Kitimenpolku 21",
      "address": "Kitimenpolku 21",
      "zipcode": "90500",
      "city": "OULU",
      "totalCabinets": 20
    },
    {
      "name": "Postnord Automaatti K-market Masurkka",
      "address": "Käpyläntie 8",
      "zipcode": "00600",
      "city": "HELSINKI",
      "totalCabinets": 20
    },
    {
        "name": "Postnord R-kioski Käpylä",
        "address": "Pohjolankatu 38",
        "zipcode": "00610",
        "city": "HELSINKI",
        "totalCabinets": 20
    },
    {
        "name": "Postnord Automaatti Alepa Koskela",
        "address": "Antti Korpin Tie 3",
        "zipcode": "00600",
        "city": "HELSINKI",
        "totalCabinets": 20
    },
    {
        "name": "Postnord Automaatti K-supermarket Mustapekka",
        "address": "Mäkitorpantie 1",
        "zipcode": "00620",
        "city": "HELSINKI",
        "totalCabinets": 20
    },
    {
        "name": "Postnord K-market Pikkupekka",
        "address": "Kisällinkuja 2",
        "zipcode": "00640",
        "city": "HELSINKI",
        "totalCabinets": 20
    },
    {
        "name": "Postnord Automaatti K-market Pikkupekka",
        "address": "Kisällinkuja 2",
        "zipcode": "00640",
        "city": "HELSINKI",
        "totalCabinets": 20
    },
    {
        "name": "Postnord K-market Amerinkulma",
        "address": "Mäkelänkatu 87",
        "zipcode": "00610",
        "city": "HELSINKI",
        "totalCabinets": 20
    },
    {
        "name": "Postnord K-market Toukola",
        "address": "Hämeentie 155",
        "zipcode": "00560",
        "city": "HELSINKI",
        "totalCabinets": 20
    },
    {
        "name": "Postnord Automaatti Alepa Viikinmäki",
        "address": "Harjannetie 46",
        "zipcode": "00710",
        "city": "HELSINKI",
        "totalCabinets": 20
    }
    
] 